{
  "norad_id": 66042,
  "name": "QIANFAN-100",
  "history": [
    {
      "epoch": "2026-03-28T20:58:22.201248",
      "apogee_km": 1070.2538550991812,
      "perigee_km": 1066.8496757969442,
      "latitude_deg": 82.61937511424215,
      "longitude_deg": 148.09133471990936,
      "semi_major_axis_km": 7446.688765448062,
      "eccentricity": 0.00022857,
      "inclination_deg": 88.9987,
      "raan_deg": 51.2147,
      "arg_perigee_deg": 87.1186,
      "mean_anomaly_deg": 273.0227,
      "mean_motion_rev_day": 13.51008115
    },
    {
      "epoch": "2026-03-29T04:04:58.312704",
      "apogee_km": 1070.2560809516035,
      "perigee_km": 1066.8469869407636,
      "latitude_deg": 22.250951479056805,
      "longitude_deg": 176.53145856014453,
      "semi_major_axis_km": 7446.688533946183,
      "eccentricity": 0.0002289,
      "inclination_deg": 88.9988,
      "raan_deg": 51.1848,
      "arg_perigee_deg": 87.1277,
      "mean_anomaly_deg": 273.0136,
      "mean_motion_rev_day": 13.51008178
    }
  ]
}